[
  {
    "COMMENT": "GENERATED VIA SPACETRACK.ORG API",
    "ORIGINATOR": "18 SPCS",
    "NORAD_CAT_ID": "26997",
    "OBJECT_NAME": "JASON",
    "OBJECT_TYPE": "PAYLOAD",
    "CLASSIFICATION_TYPE": "U",
    "INTLDES": "01055A",
    "EPOCH": "2023-05-02 12:59:25",
    "EPOCH_MICROSECONDS": "442880",
    "MEAN_MOTION": "12.84021778",
    "ECCENTRICITY": "0.0006818",
    "INCLINATION": "66.0394",
    "RA_OF_ASC_NODE": "298.5512",
    "ARG_OF_PERICENTER": "264.1445",
    "MEAN_ANOMALY": "160.2931",
    "EPHEMERIS_TYPE": "0",
    "ELEMENT_SET_NO": "999",
    "REV_AT_EPOCH": "229",
    "BSTAR": "0.00015667",
    "MEAN_MOTION_DOT": "-0.00000024",
    "MEAN_MOTION_DDOT": "0",
    "FILE": "3898868",
    "TLE_LINE0": "0 JASON",
    "TLE_LINE1": "1 26997U 01055A   23122.54126670 -.00000024  00000-0  15667-3 0  9990",
    "TLE_LINE2": "2 26997  66.0394 298.5512 0006818 264.1445 160.2931 12.84021778  2299",
    "OBJECT_ID": "2001-055A",
    "OBJECT_NUMBER": "26997",
    "SEMIMAJOR_AXIS": "7703.479",
    "PERIOD": "112.148",
    "APOGEE": "1330.596",
    "PERIGEE": "1320.092",
    "DECAYED": "0"
  },
  {
    "COMMENT": "GENERATED VIA SPACETRACK.ORG API",
    "ORIGINATOR": "18 SPCS",
    "NORAD_CAT_ID": "26997",
    "OBJECT_NAME": "JASON",
    "OBJECT_TYPE": "PAYLOAD",
    "CLASSIFICATION_TYPE": "U",
    "INTLDES": "01055A",
    "EPOCH": "2023-05-02 12:59:25",
    "EPOCH_MICROSECONDS": "442880",
    "MEAN_MOTION": "12.84021778",
    "ECCENTRICITY": "0.0006818",
    "INCLINATION": "66.0394",
    "RA_OF_ASC_NODE": "298.5512",
    "ARG_OF_PERICENTER": "264.1445",
    "MEAN_ANOMALY": "160.2931",
    "EPHEMERIS_TYPE": "0",
    "ELEMENT_SET_NO": "999",
    "REV_AT_EPOCH": "205",
    "BSTAR": "0.00015667",
    "MEAN_MOTION_DOT": "-0.00000024",
    "MEAN_MOTION_DDOT": "0",
    "FILE": "3899068",
    "TLE_LINE0": "0 JASON",
    "TLE_LINE1": "1 26997U 01055A   23122.54126670 -.00000024  00000-0  15667-3 0  9990",
    "TLE_LINE2": "2 26997  66.0394 298.5512 0006818 264.1445 160.2931 12.84021778  2053",
    "OBJECT_ID": "2001-055A",
    "OBJECT_NUMBER": "26997",
    "SEMIMAJOR_AXIS": "7703.479",
    "PERIOD": "112.148",
    "APOGEE": "1330.596",
    "PERIGEE": "1320.092",
    "DECAYED": "0"
  },
  {
    "COMMENT": "GENERATED VIA SPACETRACK.ORG API",
    "ORIGINATOR": "18 SPCS",
    "NORAD_CAT_ID": "26997",
    "OBJECT_NAME": "JASON",
    "OBJECT_TYPE": "PAYLOAD",
    "CLASSIFICATION_TYPE": "U",
    "INTLDES": "01055A",
    "EPOCH": "2023-05-02 20:38:49",
    "EPOCH_MICROSECONDS": "445664",
    "MEAN_MOTION": "12.84021786",
    "ECCENTRICITY": "0.0006823",
    "INCLINATION": "66.0394",
    "RA_OF_ASC_NODE": "297.8848",
    "ARG_OF_PERICENTER": "264.2183",
    "MEAN_ANOMALY": "194.7733",
    "EPHEMERIS_TYPE": "0",
    "ELEMENT_SET_NO": "999",
    "REV_AT_EPOCH": "209",
    "BSTAR": "0.00015723",
    "MEAN_MOTION_DOT": "-0.00000024",
    "MEAN_MOTION_DDOT": "0",
    "FILE": "3899277",
    "TLE_LINE0": "0 JASON",
    "TLE_LINE1": "1 26997U 01055A   23122.86029451 -.00000024  00000-0  15723-3 0  9997",
    "TLE_LINE2": "2 26997  66.0394 297.8848 0006823 264.2183 194.7733 12.84021786  2098",
    "OBJECT_ID": "2001-055A",
    "OBJECT_NUMBER": "26997",
    "SEMIMAJOR_AXIS": "7703.479",
    "PERIOD": "112.148",
    "APOGEE": "1330.600",
    "PERIGEE": "1320.088",
    "DECAYED": "0"
  },
  {
    "COMMENT": "GENERATED VIA SPACETRACK.ORG API",
    "ORIGINATOR": "18 SPCS",
    "NORAD_CAT_ID": "26997",
    "OBJECT_NAME": "JASON",
    "OBJECT_TYPE": "PAYLOAD",
    "CLASSIFICATION_TYPE": "U",
    "INTLDES": "01055A",
    "EPOCH": "2023-05-03 13:16:07",
    "EPOCH_MICROSECONDS": "874688",
    "MEAN_MOTION": "12.8402183",
    "ECCENTRICITY": "0.0006821",
    "INCLINATION": "66.0394",
    "RA_OF_ASC_NODE": "296.4381",
    "ARG_OF_PERICENTER": "264.2166",
    "MEAN_ANOMALY": "155.8708",
    "EPHEMERIS_TYPE": "0",
    "ELEMENT_SET_NO": "999",
    "REV_AT_EPOCH": "218",
    "BSTAR": "0.00012509",
    "MEAN_MOTION_DOT": "-0.00000031",
    "MEAN_MOTION_DDOT": "0",
    "FILE": "3899966",
    "TLE_LINE0": "0 JASON",
    "TLE_LINE1": "1 26997U 01055A   23123.55286892 -.00000031  00000-0  12509-3 0  9995",
    "TLE_LINE2": "2 26997  66.0394 296.4381 0006821 264.2166 155.8708 12.84021830  2184",
    "OBJECT_ID": "2001-055A",
    "OBJECT_NUMBER": "26997",
    "SEMIMAJOR_AXIS": "7703.479",
    "PERIOD": "112.148",
    "APOGEE": "1330.599",
    "PERIGEE": "1320.089",
    "DECAYED": "0"
  },
  {
    "COMMENT": "GENERATED VIA SPACETRACK.ORG API",
    "ORIGINATOR": "18 SPCS",
    "NORAD_CAT_ID": "26997",
    "OBJECT_NAME": "JASON",
    "OBJECT_TYPE": "PAYLOAD",
    "CLASSIFICATION_TYPE": "U",
    "INTLDES": "01055A",
    "EPOCH": "2023-05-03 20:57:48",
    "EPOCH_MICROSECONDS": "24000",
    "MEAN_MOTION": "12.84021819",
    "ECCENTRICITY": "0.0006821",
    "INCLINATION": "66.0394",
    "RA_OF_ASC_NODE": "295.7684",
    "ARG_OF_PERICENTER": "264.2183",
    "MEAN_ANOMALY": "197.7065",
    "EPHEMERIS_TYPE": "0",
    "ELEMENT_SET_NO": "999",
    "REV_AT_EPOCH": "222",
    "BSTAR": "0.00011503",
    "MEAN_MOTION_DOT": "-0.00000034",
    "MEAN_MOTION_DDOT": "0",
    "FILE": "3900281",
    "TLE_LINE0": "0 JASON",
    "TLE_LINE1": "1 26997U 01055A   23123.87347250 -.00000034  00000-0  11503-3 0  9992",
    "TLE_LINE2": "2 26997  66.0394 295.7684 0006821 264.2183 197.7065 12.84021819  2224",
    "OBJECT_ID": "2001-055A",
    "OBJECT_NUMBER": "26997",
    "SEMIMAJOR_AXIS": "7703.479",
    "PERIOD": "112.148",
    "APOGEE": "1330.599",
    "PERIGEE": "1320.090",
    "DECAYED": "0"
  },
  {
    "COMMENT": "GENERATED VIA SPACETRACK.ORG API",
    "ORIGINATOR": "18 SPCS",
    "NORAD_CAT_ID": "26997",
    "OBJECT_NAME": "JASON",
    "OBJECT_TYPE": "PAYLOAD",
    "CLASSIFICATION_TYPE": "U",
    "INTLDES": "01055A",
    "EPOCH": "2023-05-04 13:34:22",
    "EPOCH_MICROSECONDS": "931616",
    "MEAN_MOTION": "12.84021873",
    "ECCENTRICITY": "0.0006815",
    "INCLINATION": "66.0394",
    "RA_OF_ASC_NODE": "294.3226",
    "ARG_OF_PERICENTER": "264.2582",
    "MEAN_ANOMALY": "156.4345",
    "EPHEMERIS_TYPE": "0",
    "ELEMENT_SET_NO": "999",
    "REV_AT_EPOCH": "255",
    "BSTAR": "0.000091502",
    "MEAN_MOTION_DOT": "-0.0000004",
    "MEAN_MOTION_DDOT": "0",
    "FILE": "3900625",
    "TLE_LINE0": "0 JASON",
    "TLE_LINE1": "1 26997U 01055A   23124.56554319 -.00000040  00000-0  91502-4 0  9990",
    "TLE_LINE2": "2 26997  66.0394 294.3226 0006815 264.2582 156.4345 12.84021873  2556",
    "OBJECT_ID": "2001-055A",
    "OBJECT_NUMBER": "26997",
    "SEMIMAJOR_AXIS": "7703.479",
    "PERIOD": "112.148",
    "APOGEE": "1330.594",
    "PERIGEE": "1320.094",
    "DECAYED": "0"
  },
  {
    "COMMENT": "GENERATED VIA SPACETRACK.ORG API",
    "ORIGINATOR": "18 SPCS",
    "NORAD_CAT_ID": "26997",
    "OBJECT_NAME": "JASON",
    "OBJECT_TYPE": "PAYLOAD",
    "CLASSIFICATION_TYPE": "U",
    "INTLDES": "01055A",
    "EPOCH": "2023-05-04 21:31:41",
    "EPOCH_MICROSECONDS": "968992",
    "MEAN_MOTION": "12.84021894",
    "ECCENTRICITY": "0.0006811",
    "INCLINATION": "66.0394",
    "RA_OF_ASC_NODE": "293.6302",
    "ARG_OF_PERICENTER": "264.2835",
    "MEAN_ANOMALY": "248.4733",
    "EPHEMERIS_TYPE": "0",
    "ELEMENT_SET_NO": "999",
    "REV_AT_EPOCH": "235",
    "BSTAR": "0.00009979",
    "MEAN_MOTION_DOT": "-0.00000038",
    "MEAN_MOTION_DDOT": "0",
    "FILE": "3901186",
    "TLE_LINE0": "0 JASON",
    "TLE_LINE1": "1 26997U 01055A   23124.89701353 -.00000038  00000-0  99790-4 0  9992",
    "TLE_LINE2": "2 26997  66.0394 293.6302 0006811 264.2835 248.4733 12.84021894  2354",
    "OBJECT_ID": "2001-055A",
    "OBJECT_NUMBER": "26997",
    "SEMIMAJOR_AXIS": "7703.479",
    "PERIOD": "112.148",
    "APOGEE": "1330.591",
    "PERIGEE": "1320.097",
    "DECAYED": "0"
  },
  {
    "COMMENT": "GENERATED VIA SPACETRACK.ORG API",
    "ORIGINATOR": "18 SPCS",
    "NORAD_CAT_ID": "26997",
    "OBJECT_NAME": "JASON",
    "OBJECT_TYPE": "PAYLOAD",
    "CLASSIFICATION_TYPE": "U",
    "INTLDES": "01055A",
    "EPOCH": "2023-05-05 21:36:05",
    "EPOCH_MICROSECONDS": "439744",
    "MEAN_MOTION": "12.84021952",
    "ECCENTRICITY": "0.0006821",
    "INCLINATION": "66.0394",
    "RA_OF_ASC_NODE": "291.5348",
    "ARG_OF_PERICENTER": "264.1823",
    "MEAN_ANOMALY": "204.6938",
    "EPHEMERIS_TYPE": "0",
    "ELEMENT_SET_NO": "999",
    "REV_AT_EPOCH": "248",
    "BSTAR": "0.000076941",
    "MEAN_MOTION_DOT": "-0.00000043",
    "MEAN_MOTION_DDOT": "0",
    "FILE": "3901993",
    "TLE_LINE0": "0 JASON",
    "TLE_LINE1": "1 26997U 01055A   23125.90006296 -.00000043  00000-0  76941-4 0  9998",
    "TLE_LINE2": "2 26997  66.0394 291.5348 0006821 264.1823 204.6938 12.84021952  2488",
    "OBJECT_ID": "2001-055A",
    "OBJECT_NUMBER": "26997",
    "SEMIMAJOR_AXIS": "7703.479",
    "PERIOD": "112.148",
    "APOGEE": "1330.598",
    "PERIGEE": "1320.089",
    "DECAYED": "0"
  },
  {
    "COMMENT": "GENERATED VIA SPACETRACK.ORG API",
    "ORIGINATOR": "18 SPCS",
    "NORAD_CAT_ID": "26997",
    "OBJECT_NAME": "JASON",
    "OBJECT_TYPE": "PAYLOAD",
    "CLASSIFICATION_TYPE": "U",
    "INTLDES": "01055A",
    "EPOCH": "2023-05-06 16:07:58",
    "EPOCH_MICROSECONDS": "755648",
    "MEAN_MOTION": "12.84021974",
    "ECCENTRICITY": "0.0006832",
    "INCLINATION": "66.0394",
    "RA_OF_ASC_NODE": "289.9218",
    "ARG_OF_PERICENTER": "264.131",
    "MEAN_ANOMALY": "173.6176",
    "EPHEMERIS_TYPE": "0",
    "ELEMENT_SET_NO": "999",
    "REV_AT_EPOCH": "258",
    "BSTAR": "0.000059772",
    "MEAN_MOTION_DOT": "-0.00000047",
    "MEAN_MOTION_DDOT": "0",
    "FILE": "3902298",
    "TLE_LINE0": "0 JASON",
    "TLE_LINE1": "1 26997U 01055A   23126.67220782 -.00000047  00000-0  59772-4 0  9998",
    "TLE_LINE2": "2 26997  66.0394 289.9218 0006832 264.1310 173.6176 12.84021974  2582",
    "OBJECT_ID": "2001-055A",
    "OBJECT_NUMBER": "26997",
    "SEMIMAJOR_AXIS": "7703.478",
    "PERIOD": "112.148",
    "APOGEE": "1330.606",
    "PERIGEE": "1320.080",
    "DECAYED": "0"
  }
]